#aV2022 10  9  0  0  0.00000000     288 DD+AD WGS84 FIT  NGA
## 2231      0.00000000   300.00000000 59861 0.0000000000000
+   32     1  2  3  4  5  6  7  8  9 10 11 12 13 14 15 16 17
+         18 19 20 21 22 23 24 25 26 27 28 29 30 31 32  0  0
+          0  0  0  0  0  0  0  0  0  0  0  0  0  0  0  0  0
+          0  0  0  0  0  0  0  0  0  0  0  0  0  0  0  0  0
+          0  0  0  0  0  0  0  0  0  0  0  0  0  0  0  0  0
++         2  2  2  2  2  2  2  2  2  2  2  2  2  2  2  2  2
++         2  2  2  2  2  2  2  2  2  2  2  2  2  2  2  0  0
++         0  0  0  0  0  0  0  0  0  0  0  0  0  0  0  0  0
++         0  0  0  0  0  0  0  0  0  0  0  0  0  0  0  0  0
++         0  0  0  0  0  0  0  0  0  0  0  0  0  0  0  0  0
%c cc cc ccc ccc cccc cccc cccc cccc ccccc ccccc ccccc ccccc
%c cc cc ccc ccc cccc cccc cccc cccc ccccc ccccc ccccc ccccc
%f  0.0000000  0.000000000  0.00000000000  0.000000000000000
%f  0.0000000  0.000000000  0.00000000000  0.000000000000000
%i    0    0    0    0      0      0      0      0         0
%i    0    0    0    0      0      0      0      0         0
/*      NGA, ST. LOUIS,MO.                                  
/*   EPHEMERIS COMPUTED FROM 2 DAYS OF DATA                 
/*   EPOCHA v8 SMOOTHER                                     
/*   G2139 IERS2010 SATIGS SATAPC                           
*  2022 10  9 19 15  0.00000000
P  1 -14214.077734   2661.737250  21972.929114    270.213670                    
V  1  -6438.505471 -27836.444276   -456.605891     -0.061811                    
P  2  15364.159442    301.226376 -21023.519459   -643.011298                    
V  2   8169.616779  26977.291782   6340.173704      0.015174                    
P  3 -21587.112927   9070.300863  12312.158633   -362.558907                    
V  3  10038.895936 -12431.616267  26595.837213     -0.044902                    
P  4 -23934.066004    598.963474 -11607.215275   -106.187945                    
V  4 -13238.287337  -6796.500378  26842.565732      0.060015                    
P  5  17858.614554   1344.309049 -19827.153929    -99.762318                    
V  5 -16370.625731  18600.204271 -13484.078395     -0.014493                    
P  6   6514.951552  25695.451412   -661.353627    486.372457                    
V  6  -1740.288053   1351.093512  32390.151571      0.111686                    
P  7  -7902.715461  18407.604489 -16768.097870    300.323019                    
V  7  -7471.968720 -21167.521429 -19722.568574     -0.036970                    
P  8 -26083.259225  -5664.401644   1851.730153    -88.118024                    
V  8  -1651.122334  -3009.291312 -31423.780973     -0.016826                    
P  9 -15681.082793   9796.848546 -19162.511570   -285.424542                    
V  9 -22964.744805  -7660.353888  14895.631787      0.051187                    
P 10   7107.435795 -20779.844790  14861.183309     -6.808744                    
V 10  14813.484909 -11572.866338 -23807.426456     -0.016220                    
P 11  12056.979137  20651.235148 -11596.032887    -24.043460                    
V 11    479.288981  14875.460059  26948.318270     -0.041447                    
P 12  22180.164433  -7425.043893  12220.694960   -290.314932                    
V 12 -10828.987446  11958.009196  26446.783950     -0.043585                    
P 13  22524.205977  13560.153138  -4592.913156    402.991290                    
V 13  -6045.285309   -162.876317 -31112.879664      0.070762                    
P 14  -9551.394573  20986.137295  13091.917404    -96.665470                    
V 14 -14176.617694   9153.568148 -25140.228302      0.036681                    
P 15  26484.103022   3001.664916   1427.013345    -22.265552                    
V 15   1761.704032   3835.407077 -30822.215063      0.031382                    
P 16 -13475.184671  -8345.954878 -21651.493513   -525.947922                    
V 16  20751.213024 -16883.963128  -6040.110591     -0.006328                    
P 17  -1476.776215  15317.032486  22082.749515    667.160808                    
V 17 -25443.854676  -8883.257912   4613.762493      0.036489                    
P 18   7026.652624 -19653.912533 -16347.617692     20.446578                    
V 18   6187.409964  19907.161274 -21415.013806     -0.132650                    
P 19  10262.818411  17046.947368  17483.194497    221.618628                    
V 19 -21328.439074  -7390.983225  19217.210508      0.050588                    
P 20   8503.954453  13916.161922 -20988.464677    479.723896                    
V 20 -16596.060330  20917.251489   6913.382731     -0.030940                    
P 21 -17024.032249  -6700.641975  20111.804613    158.279799                    
V 21  -6926.466403 -22977.585869 -13214.616779     -0.005974                    
P 22 -12697.354807 -17132.907447  16364.989204    342.696920                    
V 22  19182.286562   5653.367230  21181.275713      0.069361                    
P 23  15465.763930 -20831.069496   5336.664159     -0.877165                    
V 23   6606.467920  -3040.624585 -31081.581689     -0.002836                    
P 24  16439.262318   1304.868259  20564.463868    106.027481                    
V 24   7796.923831  25734.098789  -7325.996829     -0.142436                    
P 25  20003.116380 -17025.770954   2441.094515    380.679317                    
V 25   -234.708361   4750.864728  31605.091939      0.039435                    
P 26  -5497.413042 -16140.118382 -20379.111778    231.831932                    
V 26  18507.640553 -18094.227854   9701.733977      0.014172                    
P 27 -21512.366234 -12985.777369  -9416.217118    200.635179                    
V 27  11590.218436   1383.653066 -28671.531687     -0.059650                    
P 28  -1488.303844  18463.291881  19629.615829    330.979767                    
V 28 -19235.499140  13974.689970 -14750.873767     -0.043757                    
P 29  17302.541954  -7067.535821 -18946.600018   -558.332760                    
V 29  21962.615608   9465.332450  16482.521669     -0.030485                    
P 30   -205.149901  25192.589692  -7902.244007   -537.225541                    
V 30  -5763.221806  -9209.296512 -29130.820782     -0.000057                    
P 31  -7059.934886 -25264.149377  -2117.746130   -196.222760                    
V 31   2752.202427  -3214.113225  31783.552735     -0.013013                    
P 32  -2770.800080 -16171.250735  21071.679272   -258.255350                    
V 32  25552.568755   6596.856536   8289.438042     -0.118221                    
EOF
